NORAD_CAT_ID,OBJECT_NAME,OBJECT_TYPE,EPOCH,MEAN_MOTION,ECCENTRICITY,INCLINATION,RA_OF_ASC_NODE,ARG_OF_PERICENTER,MEAN_ANOMALY,BSTAR,MEAN_MOTION_DOT,MEAN_MOTION_DDOT,TLE_LINE0,TLE_LINE1,TLE_LINE2,SEMIMAJOR_AXIS,PERIOD,APOGEE,PERIGEE,DECAYED
52845.0,STARLINK-4168,PAYLOAD,2024-06-12 21:06:30,15.0884029,0.0001452,53.2187,3.9594,90.1699,269.9459,-4.4789e-05,-1.001e-05,0.0,0 STARLINK-4168,1 52845U 22062R   24164.87951607 -.00001001  00000-0 -44789-4 0  9996,2 52845  53.2187   3.9594 0001452  90.1699 269.9459 15.08840290110449,6917.88,95.438,540.749,538.74,0.0
52845.0,STARLINK-4168,PAYLOAD,2024-06-13 06:38:48,15.08844512,0.0001303,53.2182,2.1753,100.5591,259.5548,-1.7211e-06,-3.15e-06,0.0,0 STARLINK-4168,1 52845U 22062R   24165.27695073 -.00000315  00000-0 -17211-5 0  9991,2 52845  53.2182   2.1753 0001303 100.5591 259.5548 15.08844512110012,6917.867,95.437,540.633,538.83,0.0
52845.0,STARLINK-4168,PAYLOAD,2024-06-13 19:21:53,15.08848432,0.0001472,53.2186,359.798,87.9067,272.2094,0.00010262,1.346e-05,0.0,0 STARLINK-4168,1 52845U 22062R   24165.80686527  .00001346  00000-0  10262-3 0  9994,2 52845  53.2186 359.7980 0001472  87.9067 272.2094 15.08848432110093,6917.855,95.437,540.738,538.701,0.0
52845.0,STARLINK-4168,PAYLOAD,2024-06-14 12:51:08,15.08833717,0.000146,53.2185,356.5267,93.1256,266.9903,9.9993e-05,1.304e-05,0.0,0 STARLINK-4168,1 52845U 22062R   24166.53551420  .00001304  00000-0  99993-4 0  9991,2 52845  53.2185 356.5267 0001460  93.1256 266.9903 15.08833717110203,6917.9,95.438,540.775,538.755,0.0
52845.0,STARLINK-4168,PAYLOAD,2024-06-14 22:23:26,15.08841611,0.0001429,53.2184,354.7404,111.8118,248.3026,6.0389e-05,6.73e-06,0.0,0 STARLINK-4168,1 52845U 22062R   24166.93294952  .00000673  00000-0  60389-4 0  9994,2 52845  53.2184 354.7404 0001429 111.8118 248.3026 15.08841611110263,6917.875,95.437,540.729,538.752,0.0
52845.0,STARLINK-4168,PAYLOAD,2024-06-15 22:14:14,15.08833714,0.0001306,53.2178,350.2819,95.9971,264.117,-2.7383e-05,-7.24e-06,0.0,0 STARLINK-4168,1 52845U 22062R   24167.92656111 -.00000724  00000-0 -27383-4 0  9999,2 52845  53.2178 350.2819 0001306  95.9971 264.1170 15.08833714110418,6917.9,95.438,540.668,538.861,0.0
52845.0,STARLINK-4168,PAYLOAD,2024-06-16 12:32:42,15.08840156,0.0001267,53.2182,347.6044,103.9633,256.1501,9.233e-05,1.182e-05,0.0,0 STARLINK-4168,1 52845U 22062R   24168.52271429  .00001182  00000-0  92330-4 0  9992,2 52845  53.2182 347.6044 0001267 103.9633 256.1501 15.08840156110501,6917.88,95.438,540.621,538.868,0.0
52845.0,STARLINK-4168,PAYLOAD,2024-06-16 18:54:14,15.08848075,0.0001292,53.2188,346.4177,98.4179,261.6959,0.00018881,2.719e-05,0.0,0 STARLINK-4168,1 52845U 22062R   24168.78766761  .00002719  00000-0  18881-3 0  9993,2 52845  53.2188 346.4177 0001292  98.4179 261.6959 15.08848075110542,6917.856,95.437,540.614,538.827,0.0
52845.0,STARLINK-4168,PAYLOAD,2024-06-17 18:45:02,15.08832223,0.0001676,53.2205,341.9604,100.4681,259.65,7.9609e-05,9.79e-06,0.0,0 STARLINK-4168,1 52845U 22062R   24169.78128289  .00000979  00000-0  79609-4 0  9993,2 52845  53.2205 341.9604 0001676 100.4681 259.6500 15.08832223110698,6917.904,95.438,540.929,538.61,0.0
52845.0,STARLINK-4168,PAYLOAD,2024-06-18 04:17:22,15.08830219,0.0001554,53.2205,340.1767,98.6435,261.4733,2.9214e-05,1.77e-06,0.0,0 STARLINK-4168,1 52845U 22062R   24170.17872722  .00000177  00000-0  29214-4 0  9993,2 52845  53.2205 340.1767 0001554  98.6435 261.4733 15.08830219111243,6917.91,95.438,540.85,538.7,0.0
52845.0,STARLINK-4168,PAYLOAD,2024-06-18 10:38:54,15.08838616,0.0001172,53.2192,338.9842,85.3511,274.7615,1.1501e-05,-1.05e-06,0.0,0 STARLINK-4168,1 52845U 22062R   24170.44368096 -.00000105  00000-0  11501-4 0  9999,2 52845  53.2192 338.9842 0001172  85.3511 274.7615 15.08838616111280,6917.885,95.438,540.56,538.939,0.0
52845.0,STARLINK-4168,PAYLOAD,2024-06-18 18:35:49,15.08848442,0.0001192,53.2185,337.4973,88.0911,272.0218,-1.5832e-05,-5.4e-06,0.0,0 STARLINK-4168,1 52845U 22062R   24170.77487552 -.00000540  00000-0 -15832-4 0  9999,2 52845  53.2185 337.4973 0001192  88.0911 272.0218 15.08848442111331,6917.855,95.437,540.544,538.895,0.0
52845.0,STARLINK-4168,PAYLOAD,2024-06-19 04:08:09,15.08831275,0.0001371,53.2183,335.7108,78.014,282.1006,-9.1839e-05,-1.749e-05,0.0,0 STARLINK-4168,1 52845U 22062R   24171.17232776 -.00001749  00000-0 -91839-4 0  9993,2 52845  53.2183 335.7108 0001371  78.0140 282.1006 15.08831275111391,6917.907,95.438,540.721,538.824,0.0
52845.0,STARLINK-4168,PAYLOAD,2024-06-19 12:05:04,15.08831011,0.0001218,53.2172,334.2253,87.2028,272.9103,0.0001007,1.315e-05,0.0,0 STARLINK-4168,1 52845U 22062R   24171.50352409  .00001315  00000-0  10070-3 0  9990,2 52845  53.2172 334.2253 0001218  87.2028 272.9103 15.08831011110955,6917.908,95.438,540.615,538.93,0.0
52845.0,STARLINK-4168,PAYLOAD,2024-06-19 20:01:59,15.08841028,0.000128,53.2166,332.7381,84.3387,275.7751,0.00014269,1.984e-05,0.0,0 STARLINK-4168,1 52845U 22062R   24171.83471907  .00001984  00000-0  14269-3 0  9997,2 52845  53.2166 332.7381 0001280  84.3387 275.7751 15.08841028111497,6917.877,95.437,540.628,538.857,0.0
52845.0,STARLINK-4168,PAYLOAD,2024-06-20 00:48:09,15.08831587,0.0001561,53.2178,331.8464,62.2265,297.8885,-4.7471e-06,-3.64e-06,0.0,0 STARLINK-4168,1 52845U 22062R   24172.03344420 -.00000364  00000-0 -47471-5 0  9995,2 52845  53.2178 331.8464 0001561  62.2265 297.8885 15.08831587111520,6917.906,95.438,540.851,538.691,0.0
52845.0,STARLINK-4168,PAYLOAD,2024-06-20 10:20:28,15.08835656,0.0001244,53.2168,330.0618,80.24,279.8733,8.1318e-05,1.006e-05,0.0,0 STARLINK-4168,1 52845U 22062R   24172.43088378  .00001006  00000-0  81318-4 0  9995,2 52845  53.2168 330.0618 0001244  80.2400 279.8733 15.08835656111095,6917.894,95.438,540.619,538.898,0.0
52845.0,STARLINK-4168,PAYLOAD,2024-06-20 19:52:46,15.08858308,0.0001075,53.2165,328.2768,96.0572,264.0543,0.00087671,0.00013699,0.0,0 STARLINK-4168,1 52845U 22062R   24172.82831600  .00013699  00000-0  87671-3 0  9990,2 52845  53.2165 328.2768 0001075  96.0572 264.0543 15.08858308111155,6917.824,95.436,540.433,538.946,0.0
52845.0,STARLINK-4168,PAYLOAD,2024-06-20 23:03:32,15.08865472,0.0001093,53.2166,327.6823,92.8485,267.2633,0.0010904,0.0001712,0.0,0 STARLINK-4168,1 52845U 22062R   24172.96079399  .00017120  00000-0  10904-2 0  9991,2 52845  53.2166 327.6823 0001093  92.8485 267.2633 15.08865472111669,6917.803,95.436,540.424,538.911,0.0
52845.0,STARLINK-4168,PAYLOAD,2024-06-21 00:38:56,15.08838319,0.0001825,53.2175,327.3858,50.0612,310.054,0.00029214,4.364e-05,0.0,0 STARLINK-4168,1 52845U 22062R   24173.02704178  .00004364  00000-0  29214-3 0  9990,2 52845  53.2175 327.3858 0001825  50.0612 310.0540 15.08838319111670,6917.886,95.438,541.013,538.488,0.0
52845.0,STARLINK-4168,PAYLOAD,2024-06-21 10:11:14,15.0884495,0.0001215,53.2167,325.601,91.0002,269.113,0.00074318,0.00011561,0.0,0 STARLINK-4168,1 52845U 22062R   24173.42447893  .00011561  00000-0  74318-3 0  9994,2 52845  53.2167 325.6010 0001215  91.0002 269.1130 15.08844950111243,6917.865,95.437,540.571,538.89,0.0
52845.0,STARLINK-4168,PAYLOAD,2024-06-21 21:18:56,15.08855716,0.0001253,53.217,323.5198,84.1347,275.9788,0.0015149,0.00023914,0.0,0 STARLINK-4168,1 52845U 22062R   24173.88815725  .00023914  00000-0  15149-2 0  9998,2 52845  53.2170 323.5198 0001253  84.1347 275.9788 15.08855716111312,6917.832,95.437,540.564,538.831,0.0
52845.0,STARLINK-4168,PAYLOAD,2024-06-22 13:12:48,15.08846599,0.0001316,53.2169,320.5453,99.1271,260.9871,0.001196,0.00018801,0.0,0 STARLINK-4168,1 52845U 22062R   24174.55055998  .00018801  00000-0  11960-2 0  9997,2 52845  53.2169 320.5453 0001316  99.1271 260.9871 15.08846599111904,6917.86,95.437,540.636,538.815,0.0
52845.0,STARLINK-4168,PAYLOAD,2024-06-22 22:45:07,15.08855094,0.0001203,53.2173,318.7627,82.4701,277.6428,0.0013857,0.00021843,0.0,0 STARLINK-4168,1 52845U 22062R   24174.94799869  .00021843  00000-0  13857-2 0  9999,2 52845  53.2173 318.7627 0001203  82.4701 277.6428 15.08855094111474,6917.834,95.437,540.531,538.867,0.0
52845.0,STARLINK-4168,PAYLOAD,2024-06-23 13:03:35,15.08848086,0.0001135,53.2176,316.0859,85.777,274.3351,0.0012571,0.0001978,0.0,0 STARLINK-4168,1 52845U 22062R   24175.54416140  .00019780  00000-0  12571-2 0  9993,2 52845  53.2176 316.0859 0001135  85.7770 274.3351 15.08848086112058,6917.856,95.437,540.506,538.935,0.0
52845.0,STARLINK-4168,PAYLOAD,2024-06-23 14:38:58,15.08850115,0.0001113,53.2178,315.7886,84.3531,275.7588,0.0013756,0.00021678,0.0,0 STARLINK-4168,1 52845U 22062R   24175.61040104  .00021678  00000-0  13756-2 0  9999,2 52845  53.2178 315.7886 0001113  84.3531 275.7588 15.08850115111571,6917.849,95.437,540.484,538.945,0.0
52845.0,STARLINK-4168,PAYLOAD,2024-06-23 22:35:54,15.08864327,0.000113,53.2177,314.3019,77.9322,282.1797,0.0015981,0.00025254,0.0,0 STARLINK-4168,1 52845U 22062R   24175.94159737  .00025254  00000-0  15981-2 0  9994,2 52845  53.2177 314.3019 0001130  77.9322 282.1797 15.08864327111628,6917.806,95.436,540.453,538.889,0.0
52845.0,STARLINK-4168,PAYLOAD,2024-06-24 00:11:17,15.08840517,0.0001246,53.2181,314.0044,82.4239,277.6895,0.00035315,5.337e-05,0.0,0 STARLINK-4168,1 52845U 22062R   24176.00784145  .00005337  00000-0  35315-3 0  9993,2 52845  53.2181 314.0044 0001246  82.4239 277.6895 15.08840517112123,6917.879,95.438,540.606,538.882,0.0
52845.0,STARLINK-4168,PAYLOAD,2024-06-24 14:29:45,15.08849867,0.000114,53.2178,311.3283,90.5746,269.5377,0.0012294,0.00019337,0.0,0 STARLINK-4168,1 52845U 22062R   24176.60399995  .00019337  00000-0  12294-2 0  9999,2 52845  53.2178 311.3283 0001140  90.5746 269.5377 15.08849867111727,6917.85,95.437,540.504,538.927,0.0
52845.0,STARLINK-4168,PAYLOAD,2024-06-24 20:51:17,15.08859552,0.0001194,53.2173,310.1394,83.9106,276.2022,0.0014384,0.0002269,0.0,0 STARLINK-4168,1 52845U 22062R   24176.86895756  .00022690  00000-0  14384-2 0  9991,2 52845  53.2173 310.1394 0001194  83.9106 276.2022 15.08859552111765,6917.821,95.436,540.512,538.86,0.0
